O3B FM5                 
1 39188U 13031A   22289.01120695 -.00000027  00000+0  00000+0 0  9992
2 39188   0.0646  16.2007 0002677 193.2904 150.4990  5.00115372170081
O3B FM4                 
1 39189U 13031B   22288.86731382 -.00000027  00000+0  00000+0 0  9996
2 39189   0.0498 352.2178 0002622 216.6881 151.0848  5.00115883170001
O3B FM2                 
1 39190U 13031C   22288.75884311 -.00000027  00000+0  00000+0 0  9997
2 39190   0.0494 346.3531 0002641 221.1130 152.5250  5.00115174170045
O3B PFM                 
1 39191U 13031D   22288.58525267 -.00000027  00000+0  00000+0 0  9991
2 39191   0.0576  10.8732 0002673 193.9728 155.1462  5.00115753169604
O3B FM3                 
1 40079U 14038A   22288.83993076 -.00000027  00000+0  00000+0 0  9991
2 40079   0.0533 359.8451 0004806 186.9807 173.1728  5.00115369145981
O3B FM7                 
1 40080U 14038B   22288.38621927 -.00000027  00000+0  00000+0 0  9996
2 40080   0.0552 355.6164 0002019 253.8545 110.5126  5.00115520150809
O3B FM6                 
1 40081U 14038C   22289.01227291 -.00000027  00000+0  00000+0 0  9994
2 40081   0.0523 359.5663 0002738 206.3838 154.0414  5.00115370151101
O3B FM8                 
1 40082U 14038D   22288.46651039 -.00000027  00000+0  00000+0 0  9994
2 40082   0.0501 357.0267 0002647 205.1452 157.8218  5.00115705150877
O3B FM10                
1 40348U 14083A   22288.69248674 -.00000027  00000+0  00000+0 0  9991
2 40348   0.0526   9.3595 0002648 194.6642 155.9691  5.00115167142837
O3B FM11                
1 40349U 14083B   22288.30614693 -.00000027  00000+0  00000+0 0  9998
2 40349   0.0571   7.6432 0002641 212.6626 139.6797  5.00115434142838
O3B FM12                
1 40350U 14083C   22288.73314368 -.00000027  00000+0  00000+0 0  9993
2 40350   0.0562   7.0625 0002803 200.6288 152.2990  5.00115291143006
O3B FM9                 
1 40351U 14083D   22288.75998646 -.00000027  00000+0  00000+0 0  9993
2 40351   0.0582   7.4646 0002632 198.3137 154.2137  5.00116196143002
DIAMOND RED             
1 42783U 17036U   22288.52859346  .00016193  00000+0  56716-3 0  9992
2 42783  97.1875 325.2592 0008206 260.1252  99.9062 15.29528044295286
DIAMOND GREEN           
1 42785U 17036W   22288.85631765  .00015562  00000+0  54473-3 0  9990
2 42785  97.1878 325.6400 0007980 259.9145 100.1195 15.29558975295400
DIAMOND BLUE            
1 42786U 17036X   22289.05174869  .00015500  00000+0  54254-3 0  9990
2 42786  97.1876 325.8209 0008035 259.5107 100.5228 15.29559784295358
LEO VANTAGE 1           
1 43113U 18004C   22288.77462739  .00004903  00000+0  39360-3 0  9991
2 43113  99.2428  21.6674 0399761 189.6527 169.6821 14.54341504241727
O3B FM15                
1 43231U 18024A   22288.42614837 -.00000027  00000+0  00000+0 0  9993
2 43231   0.0496  11.3527 0002974 195.3982 153.2389  5.00116082 83951
O3B FM16                
1 43232U 18024B   22288.47954556 -.00000027  00000+0  00000+0 0  9994
2 43232   0.0467  14.9887 0002958 192.3729 152.6279  5.00115913 83870
O3B FM14                
1 43233U 18024C   22288.71910512 -.00000027  00000+0  00000+0 0  9996
2 43233   0.0453  15.7202 0002817 194.3553 149.9134  5.00115390 83886
O3B FM13                
1 43234U 18024D   22289.17240907 -.00000027  00000+0  00000+0 0  9992
2 43234   0.0592  21.7098 0003773 189.6845 148.5884  5.00115172 84150
O3B FM20                
1 44112U 19020A   22288.74580747 -.00000027  00000+0  00000+0 0  9996
2 44112   0.0522   8.8093 0003172 204.0718 147.1044  5.00115495 64502
O3B FM19                
1 44113U 19020B   22288.77262889 -.00000027  00000+0  00000+0 0  9994
2 44113   0.0734  18.0714 0001815 214.0488 127.8686  5.00115172 64383
O3B FM17                
1 44114U 19020C   22288.25343869 -.00000027  00000+0  00000+0 0  9996
2 44114   0.0344 357.8963 0003094 208.8540 153.2389  5.00115592 64448
O3B FM18                
1 44115U 19020D   22288.59972743 -.00000027  00000+0  00000+0 0  9993
2 44115   0.0525   9.0075 0002904 195.7919 155.1918  5.00115821 64582
SALSAT                  
1 46495U 20068K   22288.79132702  .00004928  00000+0  35022-3 0  9994
2 46495  97.7389 230.2146 0015241 226.0361 133.9609 15.05072915112284
